[{"OBJECT_NAME":"SAMSAT-IONOSPHERE (RS75S)","OBJECT_ID":"2024-199BB","EPOCH":"2026-03-09T22:17:42.664992","MEAN_MOTION":15.49563395,"ECCENTRICITY":0.00086255,"INCLINATION":97.3115,"RA_OF_ASC_NODE":302.9928,"ARG_OF_PERICENTER":292.4017,"MEAN_ANOMALY":67.632,"EPHEMERIS_TYPE":0,"CLASSIFICATION_TYPE":"U","NORAD_CAT_ID":61784,"ELEMENT_SET_NO":999,"REV_AT_EPOCH":12215,"BSTAR":0.00081689278,"MEAN_MOTION_DOT":0.00045244,"MEAN_MOTION_DDOT":0},{"OBJECT_NAME":"DJIBOUTI-1B","OBJECT_ID":"2024-247AB","EPOCH":"2026-03-09T11:46:30.932256","MEAN_MOTION":15.46320021,"ECCENTRICITY":0.00071549,"INCLINATION":44.973,"RA_OF_ASC_NODE":88.0666,"ARG_OF_PERICENTER":15.7074,"MEAN_ANOMALY":344.4036,"EPHEMERIS_TYPE":0,"CLASSIFICATION_TYPE":"U","NORAD_CAT_ID":62402,"ELEMENT_SET_NO":999,"REV_AT_EPOCH":6805,"BSTAR":0.00087962914,"MEAN_MOTION_DOT":0.000443,"MEAN_MOTION_DDOT":0}]
